GLOBALSTAR M094 [+]     
1 39074U 13005C   24043.71078042 -.00000108  00000+0 -24697-4 0  9996
2 39074  51.9932 235.4733 0000716  85.6571 274.4378 12.62263000510459
GLOBALSTAR M096 [+]     
1 39075U 13005D   24043.80331668 -.00000078  00000+0  14207-3 0  9993
2 39075  52.0072 283.3261 0000468  57.7529 302.3383 12.62272575509713
GLOBALSTAR M078 [+]     
1 39076U 13005E   24043.22286827 -.00000093  00000+0  57533-4 0  9993
2 39076  51.9897  10.2687 0001046 152.0681 208.0242 12.62259769507913
GLOBALSTAR M095 [+]     
1 39077U 13005F   24043.24881467 -.00000100  00000+0  20182-4 0  9996
2 39077  51.9826   7.6273 0000464 180.1484 179.9382 12.62263044507779
GLOBALSTAR M087 [+]     
1 52888U 22064A   24043.12571455 -.00000070  00000+0  11113-3 0  9995
2 52888  51.9759 287.9516 0010146  46.6455 313.5290 13.37564997 80655
